IRIDIUM 155             
1 43573U 18061E   23031.51066897  .00000113  00000+0  33402-4 0  9999
2 43573  86.3976 211.7975 0002288  90.2641 269.8817 14.34217666236672
IRIDIUM 154             
1 43574U 18061F   23031.56140435  .00000104  00000+0  30009-4 0  9996
2 43574  86.3980 211.8502 0001878  99.0463 261.0945 14.34217305236731
IRIDIUM 163             
1 43575U 18061G   23031.47262064  .00000102  00000+0  29263-4 0  9998
2 43575  86.3978 211.8407 0001742  86.4618 273.6777 14.34219607236699
IRIDIUM 156             
1 43576U 18061H   23031.51702008  .00000107  00000+0  31103-4 0  9992
2 43576  86.3978 211.8277 0001984  82.6287 277.5135 14.34215376236693
IRIDIUM 164             
1 43577U 18061J   23031.49798883  .00000101  00000+0  29018-4 0  9992
2 43577  86.3978 211.8571 0001782  95.8128 264.3271 14.34214712236730
IRIDIUM 159             
1 43578U 18061K   23031.53604593  .00000099  00000+0  28231-4 0  9994
2 43578  86.3977 211.8041 0001857  96.3610 263.7798 14.34220597236709
IRIDIUM 180             
1 43922U 19002A   23031.25647518  .00000322  00000+0  10781-3 0  9995
2 43922  86.4015 148.9014 0001695 103.5625 256.5759 14.34218935212279
IRIDIUM 176             
1 43923U 19002B   23031.29276521  .00001108  00000+0  17184-3 0  9999
2 43923  86.6150 148.9278 0002158  90.6325 269.5140 14.72247617217850
IRIDIUM 168             
1 43924U 19002C   23031.31989964  .00000338  00000+0  11376-3 0  9996
2 43924  86.4019 148.9174 0001890 102.1831 257.9577 14.34213854212260
IRIDIUM 173             
1 43925U 19002D   23031.02814256  .00000372  00000+0  12566-3 0  9996
2 43925  86.4016 148.9784 0001828 101.2999 258.8402 14.34214414212205
IRIDIUM 169             
1 43926U 19002E   23031.44577487  .00000414  00000+0  12889-3 0  9990
2 43926  86.4273 180.3568 0006002  86.6194 273.5691 14.38607709212990
IRIDIUM 172             
1 43927U 19002F   23031.30087569  .00000317  00000+0  10610-3 0  9995
2 43927  86.4015 148.8691 0001737 104.2673 255.8716 14.34220771212256
IRIDIUM 175             
1 43928U 19002G   23031.28659135  .00001160  00000+0  18009-3 0  9994
2 43928  86.6150 148.7672 0002260  94.4087 265.7388 14.72246026217846
IRIDIUM 171             
1 43929U 19002H   23031.28184123  .00000300  00000+0  10008-3 0  9991
2 43929  86.4025 149.0462 0001916 102.4117 257.7293 14.34214021212241
IRIDIUM 170             
1 43930U 19002J   23031.29894960  .00000366  00000+0  54226-4 0  9994
2 43930  86.6149 148.9306 0002047  96.4486 263.6964 14.72243995217862
IRIDIUM 167             
1 43931U 19002K   23031.27550325  .00000322  00000+0  10791-3 0  9997
2 43931  86.4016 148.8911 0001755 103.0821 257.0571 14.34220209212247
